[{"OBJECT_NAME":"STARLINK-33590","OBJECT_ID":"2025-123AB","EPOCH":"2026-03-09T17:12:40.552992","MEAN_MOTION":14.9832798,"ECCENTRICITY":0.00034921,"INCLINATION":70.0034,"RA_OF_ASC_NODE":194.3359,"ARG_OF_PERICENTER":277.6147,"MEAN_ANOMALY":82.4615,"EPHEMERIS_TYPE":0,"CLASSIFICATION_TYPE":"U","NORAD_CAT_ID":64316,"ELEMENT_SET_NO":999,"REV_AT_EPOCH":4162,"BSTAR":0.0003774133,"MEAN_MOTION_DOT":4.413e-5,"MEAN_MOTION_DDOT":0},{"OBJECT_NAME":"CZ-6A DEB","OBJECT_ID":"2022-151AAS","EPOCH":"2026-03-09T03:45:24.122016","MEAN_MOTION":15.06999256,"ECCENTRICITY":0.00393195,"INCLINATION":98.6364,"RA_OF_ASC_NODE":147.7741,"ARG_OF_PERICENTER":181.1546,"MEAN_ANOMALY":178.9594,"EPHEMERIS_TYPE":0,"CLASSIFICATION_TYPE":"U","NORAD_CAT_ID":55894,"ELEMENT_SET_NO":999,"REV_AT_EPOCH":17150,"BSTAR":0.0072812999,"MEAN_MOTION_DOT":0.00112507,"MEAN_MOTION_DDOT":0}]
